ONEWEB-0267             
1 48985U 21060U   21280.58334491  .00011743  00000-0  25173-1 0  9998
2 48985  87.9707 209.6150 0000793 158.7297 241.9647 13.29800296  3359
ONEWEB-0268             
1 48986U 21060V   21280.58334491  .00000015  00000-0  00000-0 0  9990
2 48986  87.9392 209.0001 0006901 334.0636 164.4024 13.74932133  3413
ONEWEB-0269             
1 48987U 21060W   21280.58334491  .00008566  00000-0  18265-1 0  9993
2 48987  87.9699 209.6152 0002054  65.2033 233.2748 13.30145312  3365
ONEWEB-0270             
1 48988U 21060X   21280.58334491  .00009091  00000-0  19506-1 0  9997
2 48988  87.9711 209.5777 0001481  85.1626 134.2110 13.29738063  3378
ONEWEB-0271             
1 48989U 21060Y   21280.58334491  .00008205  00000-0  17565-1 0  9997
2 48989  87.9709 209.6302 0001269 108.8941 166.0427 13.29881993  3351
ONEWEB-0272             
1 48990U 21060Z   21280.58334491  .00010619  00000-0  22676-1 0  9990
2 48990  87.9707 209.5921 0001026 114.4103  45.4113 13.30053414  3376
ONEWEB-0273             
1 48991U 21060AA  21280.58334491  .00012221  00000-0  26249-1 0  9992
2 48991  87.9726 209.5868 0001498 111.5068 326.7319 13.29669731  3353
ONEWEB-0274             
1 48992U 21060AB  21280.58334491  .00008615  00000-0  18518-1 0  9995
2 48992  87.9737 209.6227 0000749 126.4626 175.3114 13.29612129  3359
ONEWEB-0275             
1 48993U 21060AC  21280.58334491  .00000013  00000-0  00000-0 0  9996
2 48993  87.9673 209.6101 0007582 343.6681  36.6089 13.30453423  3369
ONEWEB-0276             
1 48994U 21060AD  21280.58334491  .00009861  00000-0  21034-1 0  9998
2 48994  87.9697 209.6571 0001629 108.9824 235.0362 13.30127851  3344
ONEWEB-0277             
1 48995U 21060AE  21280.58334491  .00000013  00000-0  00000-0 0  9998
2 48995  87.9702 209.6611 0001160  94.6381 262.0044 13.30118282  3341
ONEWEB-0278             
1 48996U 21060AF  21280.58334491  .00010228  00000-0  21816-1 0  9997
2 48996  87.9710 209.4690 0008444 289.6349 340.4405 13.30115899  3374
ONEWEB-0279             
1 48997U 21060AG  21280.58334491  .00010225  00000-0  21896-1 0  9993
2 48997  87.9724 209.5752 0001577  93.1733  80.0205 13.29865954  3394
ONEWEB-0280             
1 48998U 21060AH  21280.58334491  .00011871  00000-0  25509-1 0  9997
2 48998  87.9726 209.6153 0000422 116.5992 290.8669 13.29640094  3366
ONEWEB-0281             
1 48999U 21060AJ  21280.58334491  .00013356  00000-0  28625-1 0  9990
2 48999  87.9719 209.5689 0000963  77.7436 324.5365 13.29808716  3368
ONEWEB-0282             
1 49000U 21060AK  21280.58334491  .00008077  00000-0  17276-1 0  9998
2 49000  87.9717 209.6826 0001819 105.6010 155.1395 13.29937200  3355
ONEWEB-0283             
1 49001U 21060AL  21280.58334491  .00008753  00000-0  18712-1 0  9996
2 49001  87.9713 209.6510 0001811  99.5938 208.7428 13.29975384  3351
ONEWEB-0284             
1 49002U 21060AM  21280.58334491  .00010562  00000-0  22614-1 0  9994
2 49002  87.9718 209.6001 0001763  76.4133 285.6712 13.29879958  3359
ONEWEB-0285             
1 49075U 21075A   21280.58334491  .00053223  00000-0  60606-2 0  9995
2 49075  87.5379 350.4983 0019729 127.1336 254.8013 14.85790653  3597
ONEWEB-0286             
1 49076U 21075B   21280.58334491  .00057885  00000-0  61815-2 0  9997
2 49076  87.2047 349.8178 0021365 130.5050 181.4426 14.88359850  3625
ONEWEB-0287             
1 49077U 21075C   21280.58334491 -.00886384  00000-0 -13096+0 0  9999
2 49077  87.4661 350.4179 0022620 126.8702 121.7712 14.77982193  3586
ONEWEB-0288             
1 49078U 21075D   21280.58334491  .00065887  00000-0  74950-2 0  9994
2 49078  87.5417 350.4697 0020250 133.9607  69.8256 14.85754999  3587
ONEWEB-0289             
1 49079U 21075E   21280.58334491 -.00899571  00000-0 -13397+0 0  9997
2 49079  87.4603 350.3778 0023016 129.4415 193.9028 14.77679920  3591
ONEWEB-0290             
1 49080U 21075F   21280.58334491 -.00932926  00000-0 -12880+0 0  9997
2 49080  87.4743 350.3903 0024436 131.6907 257.6370 14.80932223  3574
ONEWEB-0291             
1 49081U 21075G   21280.58334491 -.00876695  00000-0 -12751+0 0  9995
2 49081  87.4689 350.3796 0021208 123.5307  35.5225 14.78640835  3587
ONEWEB-0293             
1 49082U 21075H   21280.58334491 -.00920184  00000-0 -12495+0 0  9994
2 49082  87.4688 350.3815 0023665 125.0730 290.4549 14.81599341  3585
ONEWEB-0294             
1 49083U 21075J   21280.58334491 -.00838728  00000-0 -88916-1 0  9990
2 49083  87.2159 349.8105 0024057 125.3601 255.7345 14.91828308  3596
ONEWEB-0295             
1 49084U 21075K   21280.58334491 -.00912735  00000-0 -14238+0 0  9996
2 49084  87.4588 350.4261 0022746 130.9378 264.1484 14.75760396  3583
ONEWEB-0296             
1 49085U 21075L   21280.58334491 -.00444922  00000-0 -50075-1 0  9996
2 49085  87.2050 349.8102 0023869 129.5892 147.4994 14.88684962  3592
ONEWEB-0297             
1 49086U 21075M   21280.58334491  .00053231  00000-0  60606-2 0  9996
2 49086  87.5372 350.5055 0019901 124.0999 247.1673 14.85794865  3592
ONEWEB-0298             
1 49087U 21075N   21280.58334491 -.00896660  00000-0 -13161+0 0  9991
2 49087  87.4654 350.3883 0022042 123.1388 317.7555 14.78303152  3583
ONEWEB-0299             
1 49088U 21075P   21280.58334491 -.00926612  00000-0 -14871+0 0  9992
2 49088  87.4457 350.4079 0021633 130.3706 200.1215 14.74613198  3591
ONEWEB-0300             
1 49089U 21075Q   21280.58334491  .00065080  00000-0  74001-2 0  9998
2 49089  87.5407 350.4554 0020722 132.7405 101.4363 14.85770006  3597
ONEWEB-0301             
1 49090U 21075R   21280.58334491  .00060668  00000-0  64802-2 0  9995
2 49090  87.2011 349.7955 0021906 128.7117 347.0647 14.88326795  3614
ONEWEB-0302             
1 49091U 21075S   21280.58334491  .00065074  00000-0  69124-2 0  9994
2 49091  87.1994 349.7804 0023338 124.8079  47.4526 14.88503416  3605
ONEWEB-0304             
1 49092U 21075T   21280.58334491 -.00940181  00000-0 -14979+0 0  9993
2 49092  87.4487 350.4133 0023418 133.1353 251.7378 14.74934306  3579
ONEWEB-0305             
1 49093U 21075U   21280.58334491 -.00896222  00000-0 -13136+0 0  9994
2 49093  87.4656 350.4007 0022400 123.3960 278.0020 14.78354325  3570
ONEWEB-0308             
1 49094U 21075V   21280.58334491  .00053125  00000-0  56746-2 0  9997
2 49094  87.2053 349.8160 0021680 130.2498 240.5772 14.88370145  3593
ONEWEB-0309             
1 49095U 21075W   21280.58334491 -.00937193  00000-0 -14628+0 0  9996
2 49095  87.4513 350.4159 0023060 132.7858  23.9941 14.75807626  3589
ONEWEB-0310             
1 49096U 21075X   21280.58334491  .00059279  00000-0  67465-2 0  9995
2 49096  87.5445 350.5058 0020026 131.9198 328.6971 14.85775799  3596
ONEWEB-0311             
1 49097U 21075Y   21280.58334491 -.00905817  00000-0 -11997+0 0  9992
2 49097  87.4879 350.3778 0021637 124.7679 191.2606 14.82629560  3586
ONEWEB-0312             
1 49098U 21075Z   21280.58334491 -.00903789  00000-0 -13599+0 0  9999
2 49098  87.4582 350.4056 0023602 129.3773 163.6526 14.77246351  3590
ONEWEB-0313             
1 49099U 21075AA  21280.58334491 -.00890321  00000-0 -12954+0 0  9991
2 49099  87.4666 350.3918 0020941 122.4347 348.8092 14.78672940  3586
ONEWEB-0314             
1 49100U 21075AB  21280.58334491 -.00926159  00000-0 -14718+0 0  9993
2 49100  87.4486 350.4086 0022922 132.5296 251.1454 14.75008209  3577
ONEWEB-0315             
1 49101U 21075AC  21280.58334491  .00062326  00000-0  70919-2 0  9997
2 49101  87.5402 350.4704 0020370 131.6878 356.6121 14.85761755  3592
ONEWEB-0316             
1 49102U 21075AD  21280.58334491  .00057420  00000-0  61125-2 0  9996
2 49102  87.2045 349.7946 0021230 118.0555 196.3237 14.88492167  3609
ONEWEB-0317             
1 49103U 21075AE  21280.58334491 -.00874596  00000-0 -92232-1 0  9992
2 49103  87.5220 350.3552 0020751 130.0441 165.4516 14.92228541  3597
ONEWEB-0318             
1 49104U 21075AF  21280.58334491 -.00006670  00000-0 -72195-3 0  9991
2 49104  87.1998 349.7759 0021350 114.8023 241.4166 14.88379185  3603
ONEWEB-0319             
1 49105U 21075AG  21280.58334491 -.00888954  00000-0 -12943+0 0  9996
2 49105  87.4676 350.3898 0023128 125.2756 282.0707 14.78597457  3588
ONEWEB-0323             
1 49106U 21075AH  21280.58334491  .00065533  00000-0  69963-2 0  9992
2 49106  87.2019 349.7975 0023848 121.7190  92.6744 14.88287826  3604
ONEWEB-0329             
1 49107U 21075AJ  21280.58334491 -.00888757  00000-0 -13699+0 0  9998
2 49107  87.4544 350.4051 0023858 132.7220 350.3755 14.76171167  3570
ONEWEB-0330             
1 49108U 21075AK  21280.58334491  .00053759  00000-0  68443-2 0  9993
2 49108  87.4696 350.3960 0022696 134.4139 278.9026 14.81116337  3585
ONEWEB-0292             
1 49186U 21083A   21280.58334491 -.01034345  00000-0 -69258-1 0  9995
2 49186  87.2822 320.1582 0018526 220.1672 178.5183 15.09968904  3616
ONEWEB-0303             
1 49187U 21083B   21280.58334491 -.01084538  00000-0 -76124-1 0  9995
2 49187  87.4525 320.3476 0016861 222.2053 231.5664 15.07947043  3623
ONEWEB-0306             
1 49188U 21083C   21280.58334491 -.01099724  00000-0 -72772-1 0  9994
2 49188  87.4559 320.3260 0020177 216.3021  26.6039 15.10061325  3641
ONEWEB-0307             
1 49189U 21083D   21280.58334491 -.01038783  00000-0 -71250-1 0  9993
2 49189  87.2798 320.1648 0016375 213.9078  93.6003 15.08680121  3657
ONEWEB-0320             
1 49190U 21083E   21280.58334491 -.01095755  00000-0 -77754-1 0  9992
2 49190  87.4525 320.3463 0016639 219.2351 199.8740 15.07581376  3649
ONEWEB-0321             
1 49191U 21083F   21280.58334491 -.01026462  00000-0 -66817-1 0  9990
2 49191  87.2844 320.1536 0019321 218.9296 227.8984 15.10945973  3616
ONEWEB-0322             
1 49192U 21083G   21280.58334491 -.01040101  00000-0 -69533-1 0  9995
2 49192  87.2836 320.1574 0017636 222.5931 169.6692 15.10062064  3614
